# From MPC133426
82P/Gehrels,e,1.1291,239.2436,226.3944,4.132592,0.1173195,0.12232078,230.8114,11/11.0/2023,2000,g 15.0,4.0
# From NK 932
83D/Russell,e,17.8247,226.3112,334.4416,3.843996,0.1307765,0.44150240,117.9913,11/11.0/2023,2000,g  9.0,4.0
# From MPEC 2020-FB5
84P/Giclas,e,7.5508,108.1713,281.6279,3.550002,0.1473537,0.51609820,184.8164,11/11.0/2023,2000,g  9.5,8.0
# From unp
85D/Boethin,e,4.1741,65.2850,333.0590,5.043340,0.0870215,0.77635489,104.3203,11/11.0/2023,2000,g  6.5,8.0
# From MPEC 2022-YB4
86P/Wild,e,15.4921,72.1974,180.0984,3.614447,0.1434304,0.37197839,91.8337,11/11.0/2023,2000,g 11.0,6.0
# From MPEC 2020-SI8
87P/Bus,e,2.7991,187.7391,49.6511,4.218805,0.1137417,0.25779878,143.9245,11/11.0/2023,2000,g  7.2,10.0
# From MPEC 2023-J29
88P/Howell,e,4.3819,56.6652,235.9311,3.106870,0.1799780,0.56332695,205.4132,11/11.0/2023,2000,g 11.0,6.0
# From MPEC 2023-J29
89P/Russell,e,12.0722,41.3465,250.4015,3.752373,0.1355954,0.40788924,341.4768,11/11.0/2023,2000,g 11.5,6.0
# From MPEC 2022-K19
90P/Gehrels,e,9.6502,13.2198,29.0875,6.051556,0.0662069,0.51117773,154.3922,11/11.0/2023,2000,g  8.5,6.0
# From MPEC 2021-S45
91P/Russell,e,14.5579,244.7731,357.0915,3.882844,0.1288188,0.34454344,140.1778,11/11.0/2023,2000,g  7.5,6.0
# From MPEC 2014-J58
92P/Sanguin,e,19.4991,181.3789,163.8029,5.342699,0.0798111,0.66069554,252.9262,11/11.0/2023,2000,g 12.0,6.0
# From NK 2707
93P/Lovas,e,12.2041,339.5971,74.9147,4.377997,0.1075947,0.61393687,262.7569,11/11.0/2023,2000,g  9.0,4.0
# From MPEC 2023_O39
94P/Russell,e,6.1878,70.8522,92.4095,3.510422,0.1498529,0.36560678,26.0670,11/11.0/2023,2000,g  9.0,6.0
# From MPC 75717
95P/Chiron,e,6.9220,209.2000,339.4435,13.71236,0.0194105,0.37648730,198.1396,11/11.0/2023,2000,g  6.5,2.0
# From MPEC 2023-N01
96P/Machholz,e,57.5267,93.9533,14.7447,3.030690,0.1868064,0.96160478,53.0362,11/11.0/2023,2000,g 13.0,4.8
# From MPC106348
96P-B/Machholz,e,57.5059,14.7375,93.9473,3.030216,0.1868503,0.96160320,53.0485,11/11.0/2023,2000,g 13.0,4.8
# From MPC103849
96P-C/Machholz,e,58.5311,94.3495,15.5380,3.011920,0.1885553,0.95889850,359.8715,07/14.0/2012,2000,g  9.0,4.0
# From MPEC 2022-C56
97P/Metcalf-Brewington,e,17.9501,184.1179,230.0281,4.765024,0.0947560,0.46031358,59.9905,11/11.0/2023,2000,g  5.5,6.0
# From MPEC 2021-W31
98P/Takamizawa,e,10.5664,114.6525,157.7519,3.791114,0.1335223,0.56239093,138.9710,11/11.0/2023,2000,g  9.0,8.0
# From MPEC 2023-RF3
99P/Kowal,e,4.3396,28.0983,174.7213,6.098267,0.0654477,0.22854161,37.9193,11/11.0/2023,2000,g  4.5,6.0
# From MPEC 2023-OA6
100P/Hartley,e,25.5669,37.6869,181.9616,3.430595,0.1551136,0.41178446,70.9090,11/11.0/2023,2000,g  9.0,8.0
# From MPEC 2022-K19
101P/Chernykh,e,5.0497,116.2487,277.7737,5.812024,0.0703417,0.59635871,98.3059,11/11.0/2023,2000,g 10.0,4.8
# From MPC105241
101P-B/Chernykh,e,5.0500,278.5685,115.4563,5.827496,0.0700618,0.59656997,96.6688,11/11.0/2023,2000,g  9.0,4.0
# From MPEC 2022-C56
102P/Shoemaker,e,25.8763,339.4118,20.6500,3.817865,0.1321214,0.45680843,135.0840,11/11.0/2023,2000,g  6.5,8.0
# From MPEC 2023-V39
103P/Hartley,e,13.6107,219.7497,181.3011,3.475280,0.1521316,0.69381167,4.4861,11/11.0/2023,2000,g  8.5,8.0
# From MPEC 2023-G31
104P/Kowal,e,5.7034,207.2094,227.2505,3.208578,0.1714885,0.66581715,114.5844,11/11.0/2023,2000,g 16.0,4.0
# From MPC109147
105P/Singer Brewster,e,9.1679,192.3647,46.4139,3.470776,0.1524278,0.40884876,293.0990,11/11.0/2023,2000,g 11.5,6.0
# From MPEC 2023-UR6
106P/Schuster,e,19.5407,48.8618,353.7549,3.766537,0.1348313,0.59396812,109.7502,11/11.0/2023,2000,g 14.0,4.8
# From MPEC 2015-M77
107P/Wilson-Harrington,e,2.7987,266.7605,95.4775,2.624987,0.2317465,0.63153010,102.7490,11/11.0/2023,2000,g  9.0,4.0
# From MPEC 2022-P82
108P/Ciffreo,e,11.4363,50.2973,354.4849,3.741999,0.1361597,0.55612456,107.7903,11/11.0/2023,2000,g  8.0,12.0
# From  105, 420
109P/Swift-Tuttle,e,13.7404,139.3404,153.0133,26.20213,0.0073485,0.96209731,83.0007,11/11.0/2023,2000,g  4.0,6.0
# From MPEC 2023-KD6
110P/Hartley,e,11.7062,287.4991,167.4833,3.603877,0.1440619,0.31891369,108.5397,11/11.0/2023,2000,g  1.0,12.0
# From MPC 75718
111P/Helin-Roman-Crockett,e,4.2257,89.8166,1.1323,4.151723,0.1165095,0.10706108,102.1451,11/11.0/2023,2000,g  5.0,8.0
# From MPEC 2021-S45
112P/Urata-Niijima,e,24.2116,31.8370,21.4859,3.523870,0.1489959,0.59079560,204.2202,11/11.0/2023,2000,g 14.0,6.0
# From MPEC 2023-V39
113P/Spitaler,e,5.2882,306.6669,115.5985,3.693551,0.1388475,0.41995743,73.2216,11/11.0/2023,2000,g 13.5,4.0
# From MPEC 2023-A50
114P/Wiseman-Skiff,e,18.2977,271.0230,172.7558,3.542054,0.1478500,0.55579769,206.3874,11/11.0/2023,2000,g 11.5,6.0
# From MPEC 2023-J29
115P/Maury,e,11.6771,176.0114,120.9878,4.272266,0.1116135,0.51764744,133.9860,11/11.0/2023,2000,g 10.5,6.0
# From MPEC 2023-T65
116P/Wild,e,3.6034,20.9748,173.2232,3.488109,0.1512931,0.37030827,72.9681,11/11.0/2023,2000,g  2.5,10.0
# From MPEC 2023-V39
117P/Helin-Roman-Alu,e,8.7048,58.8187,223.2939,4.089414,0.1191825,0.25601698,58.3604,11/11.0/2023,2000,g  2.5,8.0
# From MPEC 2023-N01
118P/Shoemaker-Levy,e,10.0906,142.0917,314.8653,3.347799,0.1609033,0.45365864,56.5721,11/11.0/2023,2000,g 12.0,4.0
# From MPEC 2023-M14
119P/Parker-Hartley,e,7.3925,104.5637,322.1390,3.806594,0.1327087,0.38838537,60.4862,11/11.0/2023,2000,g 12.5,4.0
# From MPEC 2022-CN4
120P/Mueller,e,8.4883,358.7245,36.6838,3.967231,0.1247306,0.37482023,114.4064,11/11.0/2023,2000,g 12.0,4.0
# From MPEC 2023-D41
121P/Shoemaker-Holt,e,20.1636,94.1137,11.6990,4.584948,0.1003928,0.18639288,13.5524,11/11.0/2023,2000,g  6.5,8.0
# From MPC 75718
122P/de Vico,e,85.8562,79.7114,12.9902,17.62641,0.0133186,0.96241712,136.9693,11/11.0/2023,2000,g  7.5,5.2
# From MPEC 2021-F20
123P/West-Hartley,e,15.2790,45.9073,104.0364,3.881163,0.1289025,0.44426402,225.0550,11/11.0/2023,2000,g 12.2,4.0
# From MPEC 2023-T65
124P/Mrkos,e,31.4834,0.0911,185.2097,3.371710,0.1591948,0.48722342,207.8505,11/11.0/2023,2000,g 13.5,2.8
# From MPEC 2022-YB4
125P/Spacewatch,e,9.9851,153.1522,87.1442,3.129088,0.1780645,0.51210766,339.1123,11/11.0/2023,2000,g 13.0,6.0
# From MPEC 2023-V39
126P/IRAS,e,45.8717,357.8680,356.5894,5.636867,0.0736457,0.69655529,9.4772,11/11.0/2023,2000,g  6.0,8.0
# From MPEC 2023-D41
127P/Holt-Olmstead,e,14.3010,13.6054,6.2905,3.452450,0.1536430,0.35937676,70.3042,11/11.0/2023,2000,g 11.0,6.0
# From MPC 89014
128P/Shoemaker-Holt,e,4.3704,214.3429,210.3217,4.486287,0.1037226,0.32227964,258.5313,11/11.0/2023,2000,g  8.5,4.0
# From MPEC 2023-M14
129P/Shoemaker-Levy,e,3.4424,184.8608,307.4799,4.290726,0.1108939,0.08539772,38.3302,11/11.0/2023,2000,g 11.0,4.0
# From MPEC 2023-M14
130P/McNaught-Hughes,e,6.0636,70.1785,246.1226,3.381842,0.1584799,0.46094797,335.2980,11/11.0/2023,2000,g 10.0,6.0
# From MPC102101
131P/Mueller,e,7.3608,214.1788,179.0949,3.677500,0.1397575,0.34491138,244.3914,11/11.0/2023,2000,g 11.0,4.0
# From MPEC 2022-TD3
132P/Helin-Roman-Alu,e,5.3824,174.0329,216.3979,3.889784,0.1284742,0.56467194,93.4962,11/11.0/2023,2000,g 11.0,6.0
# From MPC 94676
133P/Elst-Pizarro,e,1.3897,160.1034,131.9176,3.164887,0.1750519,0.15615460,328.2577,11/11.0/2023,2000,g 15.4,2.0
# From MPC 89012
134P/Kowal-Vavrova,e,4.3349,202.0115,18.8063,6.266505,0.0628298,0.58500740,218.3023,11/11.0/2023,2000,g 11.5,4.0
# From MPEC 2022-OB6
135P/Shoemaker-Levy,e,6.0637,213.0212,22.3751,3.800143,0.1330467,0.29439750,77.5155,11/11.0/2023,2000,g  7.0,8.0
# From MPEC 2022-K19
136P/Mueller,e,9.4271,137.4987,225.1275,4.187108,0.1150358,0.29334305,311.7878,11/11.0/2023,2000,g 11.0,4.0
# From MPEC 2023-J29
137P/Shoemaker-Levy,e,4.8599,232.9288,141.2051,4.522013,0.1024959,0.57372081,183.6366,11/11.0/2023,2000,g 11.0,4.0
# From MPEC 2016-U66
138P/Shoemaker-Levy,e,10.0947,309.3024,95.6015,3.619316,0.1431411,0.53159466,236.3117,11/11.0/2023,2000,g 15.0,6.0
# From MPEC 2020-HN5
139P/Vaisala-Oterma,e,2.3371,242.1790,165.8075,4.516770,0.1026744,0.24826854,221.5219,11/11.0/2023,2000,g  9.5,4.0
# From MPEC 2015-E14
140P/Bowell-Skiff,e,3.8155,343.2880,172.4791,6.406415,0.0607829,0.69579513,183.9720,11/11.0/2023,2000,g 11.5,6.0
# From MPEC 2022-K19
141P/Machholz,e,13.9540,241.8119,153.5955,3.057563,0.1843490,0.73611341,195.2461,11/11.0/2023,2000,g 12.0,12.0
# From MPEC 2015-KD9
141P-A/Machholz,e,13.9449,153.5672,241.8542,3.057700,0.1843366,0.73610712,195.2003,11/11.0/2023,2000,g 12.0,12.0
# From MPC 24216
141P-B/Machholz,e,13.9888,153.6429,241.7435,3.056094,0.1844820,0.73586467,196.5414,11/11.0/2023,2000,g  9.0,4.0
# From MPC 37026
141P-D/Machholz,e,13.8370,153.2943,242.1017,3.066141,0.1835760,0.73706340,191.2503,11/11.0/2023,2000,g  9.0,4.0
# From MPEC 2015-R12
141P-E/Machholz,e,12.8152,246.1856,149.2667,3.012914,0.1884620,0.75023267,359.9529,09/19.0/1994,2000,g  9.0,4.0
# From MPEC 2015-R12
141P-F/Machholz,e,12.7898,246.1881,149.2374,3.010224,0.1887147,0.75000946,359.9630,09/19.0/1994,2000,g  9.0,4.0
# From MPEC 2015-R12
141P-G/Machholz,e,12.8259,246.3146,149.0784,3.005818,0.1891298,0.74964304,359.9802,09/19.0/1994,2000,g  9.0,4.0
# From MPC 95735
141P-H/Machholz,e,12.8431,246.0900,149.4500,3.008012,0.1889230,0.74682218,359.9270,08/24.0/2015,2000,g 18.5,4.0
# From MPEC 2022-SU8
141P-I/Machholz,e,13.9448,153.5215,241.8645,3.048185,0.1852005,0.73533222,196.2281,11/11.0/2023,2000,g 17.5,4.0
# From MPEC 2021-Y10
142P/Ge-Wang,e,12.2506,175.9714,174.0299,5.001943,0.0881041,0.49680628,80.3861,11/11.0/2023,2000,g  8.5,6.0
# From MPEC 2023-UR6
143P/Kowal-Mrkos,e,4.8252,244.3786,320.6242,4.258908,0.1121390,0.41989401,226.0986,11/11.0/2023,2000,g 13.5,2.0
# From MPEC 2023-V39
144P/Kushida,e,3.9318,242.9250,216.3203,3.832281,0.1313766,0.63498289,350.0459,11/11.0/2023,2000,g  8.5,8.0
# From MPC108598
145P/Shoemaker-Levy,e,11.2785,26.8187,10.2907,4.134002,0.1172595,0.54260064,264.7028,11/11.0/2023,2000,g 13.5,4.0
# From MPC100284
146P/Shoemaker-LINEAR,e,23.1172,53.4201,317.0142,4.027092,0.1219598,0.64748046,327.2572,11/11.0/2023,2000,g 15.0,4.0
# From MPC 75720
